NORAD_CAT_ID,OBJECT_NAME,OBJECT_TYPE,EPOCH,MEAN_MOTION,ECCENTRICITY,INCLINATION,RA_OF_ASC_NODE,ARG_OF_PERICENTER,MEAN_ANOMALY,BSTAR,MEAN_MOTION_DOT,MEAN_MOTION_DDOT,TLE_LINE0,TLE_LINE1,TLE_LINE2,SEMIMAJOR_AXIS,PERIOD,APOGEE,PERIGEE,DECAYED
52106.0,STARLINK-3670,PAYLOAD,2023-03-21 19:56:51,15.08841708,0.0001061,53.2138,274.7516,87.009,273.1023,0.0001049,1.382e-05,0.0,0 STARLINK-3670,1 52106U 22029U   23080.83115340  .00001382  00000-0  10490-3 0  9998,2 52106  53.2138 274.7516 0001061  87.0090 273.1023 15.08841708 57026,6917.875,95.437,540.474,539.006,0.0
52106.0,STARLINK-3670,PAYLOAD,2023-03-22 05:29:10,15.08843392,0.0001015,53.2135,272.9675,83.5649,276.5459,9.9598e-05,1.298e-05,0.0,0 STARLINK-3670,1 52106U 22029U   23081.22859192  .00001298  00000-0  99598-4 0  9995,2 52106  53.2135 272.9675 0001015  83.5649 276.5459 15.08843392 57086,6917.87,95.437,540.437,539.033,0.0
52106.0,STARLINK-3670,PAYLOAD,2023-03-22 19:47:38,15.08834614,0.0001285,53.2154,270.2947,103.7128,256.4007,-5.0644e-05,-1.094e-05,0.0,0 STARLINK-3670,1 52106U 22029U   23081.82475642 -.00001094  00000-0 -50644-4 0  9990,2 52106  53.2154 270.2947 0001285 103.7128 256.4007 15.08834614 57179,6917.897,95.438,540.651,538.873,0.0
52106.0,STARLINK-3670,PAYLOAD,2023-03-23 05:19:57,15.08837081,0.0001089,53.2144,268.5071,79.9078,280.2037,2.5264e-05,1.14e-06,0.0,0 STARLINK-3670,1 52106U 22029U   23082.22219751  .00000114  00000-0  25264-4 0  9992,2 52106  53.2144 268.5071 0001089  79.9078 280.2037 15.08837081 57232,6917.889,95.438,540.508,539.001,0.0
52106.0,STARLINK-3670,PAYLOAD,2023-03-23 19:38:26,15.08841575,0.00013,53.2145,265.8319,84.3126,275.8015,0.00015669,2.207e-05,0.0,0 STARLINK-3670,1 52106U 22029U   23082.81835733  .00002207  00000-0  15669-3 0  9993,2 52106  53.2145 265.8319 0001300  84.3126 275.8015 15.08841575 57327,6917.876,95.437,540.64,538.841,0.0
52106.0,STARLINK-3670,PAYLOAD,2023-03-24 05:10:44,15.08848579,0.0001155,53.2144,264.0484,75.2052,284.9068,0.00023964,3.529e-05,0.0,0 STARLINK-3670,1 52106U 22029U   23083.21579641  .00003529  00000-0  23964-3 0  9996,2 52106  53.2144 264.0484 0001155  75.2052 284.9068 15.08848579 57381,6917.854,95.437,540.518,538.92,0.0
52106.0,STARLINK-3670,PAYLOAD,2023-03-24 19:29:14,15.08826525,0.0001269,53.2134,261.373,91.4117,268.702,-6.9773e-05,-1.398e-05,0.0,0 STARLINK-3670,1 52106U 22029U   23083.81197115 -.00001398  00000-0 -69773-4 0  9997,2 52106  53.2134 261.3730 0001269  91.4117 268.7020 15.08826525 57477,6917.922,95.438,540.664,538.909,0.0
52106.0,STARLINK-3670,PAYLOAD,2023-03-25 17:44:38,15.08829482,0.0001151,53.213,257.2088,71.102,289.0097,0.0001026,1.345e-05,0.0,0 STARLINK-3670,1 52106U 22029U   23084.73933868  .00001345  00000-0  10260-3 0  9998,2 52106  53.2130 257.2088 0001151  71.1020 289.0097 15.08829482 57612,6917.913,95.438,540.574,538.981,0.0
52106.0,STARLINK-3670,PAYLOAD,2023-03-26 04:52:20,15.08843268,0.0001249,53.2135,255.1263,72.5227,287.5901,0.00041714,6.358e-05,0.0,0 STARLINK-3670,1 52106U 22029U   23085.20301695  .00006358  00000-0  41714-3 0  9995,2 52106  53.2135 255.1263 0001249  72.5227 287.5901 15.08843268 57683,6917.87,95.437,540.599,538.871,0.0
52106.0,STARLINK-3670,PAYLOAD,2023-03-26 17:35:25,15.08863037,0.0001096,53.2151,252.7476,68.5477,291.5631,0.00087709,0.00013707,0.0,0 STARLINK-3670,1 52106U 22029U   23085.73293168  .00013707  00000-0  87709-3 0  9998,2 52106  53.2151 252.7476 0001096  68.5477 291.5631 15.08863037 57762,6917.81,95.436,540.433,538.917,0.0
52106.0,STARLINK-3670,PAYLOAD,2023-03-27 11:04:39,15.08849544,9.48e-05,53.2146,249.4779,54.6688,305.4393,4.243e-05,3.88e-06,0.0,0 STARLINK-3670,1 52106U 22029U   23086.46156690  .00000388  00000-0  42430-4 0  9991,2 52106  53.2146 249.4779 0000948  54.6688 305.4393 15.08849544 57879,6917.851,95.437,540.372,539.06,0.0
52106.0,STARLINK-3670,PAYLOAD,2023-03-27 14:15:25,15.08855492,0.0001202,53.2141,248.8803,81.6351,278.4777,0.00017942,2.57e-05,0.0,0 STARLINK-3670,1 52106U 22029U   23086.59404511  .00002570  00000-0  17942-3 0  9997,2 52106  53.2141 248.8803 0001202  81.6351 278.4777 15.08855492 57892,6917.833,95.437,540.53,538.867,0.0
52106.0,STARLINK-3670,PAYLOAD,2023-03-27 17:26:11,15.08860192,0.0001139,53.2147,248.2858,77.9431,282.1689,0.00051471,7.918e-05,0.0,0 STARLINK-3670,1 52106U 22029U   23086.72652299  .00007918  00000-0  51471-3 0  9996,2 52106  53.2147 248.2858 0001139  77.9431 282.1689 15.08860192 57918,6917.819,95.436,540.472,538.896,0.0
52106.0,STARLINK-3670,PAYLOAD,2023-03-28 10:55:26,15.08852731,0.0001078,53.2146,245.0139,89.5946,270.5169,0.0010287,0.00016127,0.0,0 STARLINK-3670,1 52106U 22029U   23087.45516348  .00016127  00000-0  10287-2 0  9992,2 52106  53.2146 245.0139 0001078  89.5946 270.5169 15.08852731 58023,6917.841,95.437,540.452,538.961,0.0
52106.0,STARLINK-3670,PAYLOAD,2023-03-28 14:06:12,15.08850429,0.0001284,53.2145,244.4191,101.3114,258.8023,0.00038761,5.888e-05,0.0,0 STARLINK-3670,1 52106U 22029U   23087.58764288  .00005888  00000-0  38761-3 0  9994,2 52106  53.2145 244.4191 0001284 101.3114 258.8023 15.08850429 58044,6917.849,95.437,540.602,538.825,0.0
52106.0,STARLINK-3670,PAYLOAD,2023-03-28 17:16:58,15.0885246,0.0001091,53.2144,243.8249,82.4024,277.7093,0.00052216,8.035e-05,0.0,0 STARLINK-3670,1 52106U 22029U   23087.72012176  .00008035  00000-0  52216-3 0  9990,2 52106  53.2144 243.8249 0001091  82.4024 277.7093 15.08852460 58061,6917.842,95.437,540.462,538.953,0.0
52106.0,STARLINK-3670,PAYLOAD,2023-03-29 02:49:17,15.08851,8.16e-05,53.2141,242.041,71.3608,288.7473,0.00060437,9.347e-05,0.0,0 STARLINK-3670,1 52106U 22029U   23088.11756061  .00009347  00000-0  60437-3 0  9993,2 52106  53.2141 242.0410 0000816  71.3608 288.7473 15.08851000 58128,6917.847,95.437,540.276,539.147,0.0
52106.0,STARLINK-3670,PAYLOAD,2023-03-29 10:46:13,15.08847052,0.0001407,53.214,240.5563,92.3341,267.7812,0.00040634,6.186e-05,0.0,0 STARLINK-3670,1 52106U 22029U   23088.44876248  .00006186  00000-0  40634-3 0  9994,2 52106  53.2140 240.5563 0001407  92.3341 267.7812 15.08847052 58174,6917.859,95.437,540.697,538.75,0.0
52106.0,STARLINK-3670,PAYLOAD,2023-03-29 20:18:31,15.08856891,0.0001476,53.2157,238.774,108.0372,252.0781,0.00039801,6.055e-05,0.0,0 STARLINK-3670,1 52106U 22029U   23088.84619751  .00006055  00000-0  39801-3 0  9991,2 52106  53.2157 238.7740 0001476 108.0372 252.0781 15.08856891 58233,6917.829,95.436,540.715,538.673,0.0
52106.0,STARLINK-3670,PAYLOAD,2023-03-30 20:09:18,15.08860278,0.0001323,53.2143,234.3096,82.6241,277.4902,0.00072367,0.00011254,0.0,0 STARLINK-3670,1 52106U 22029U   23089.83979621  .00011254  00000-0  72367-3 0  9997,2 52106  53.2143 234.3096 0001323  82.6241 277.4902 15.08860278 58383,6917.818,95.436,540.599,538.768,0.0
52106.0,STARLINK-3670,PAYLOAD,2023-03-31 02:30:51,15.08832313,0.0001097,53.2121,233.1238,110.8914,249.2196,-0.00010058,-1.888e-05,0.0,0 STARLINK-3670,1 52106U 22029U   23090.10475965 -.00001888  00000-0 -10058-3 0  9994,2 52106  53.2121 233.1238 0001097 110.8914 249.2196 15.08832313 58429,6917.904,95.438,540.528,539.01,0.0
52106.0,STARLINK-3670,PAYLOAD,2023-03-31 13:38:33,15.08840739,0.0001212,53.2144,231.0413,107.9755,252.1369,0.00032034,4.814e-05,0.0,0 STARLINK-3670,1 52106U 22029U   23090.56844052  .00004814  00000-0  32034-3 0  9999,2 52106  53.2144 231.0413 0001212 107.9755 252.1369 15.08840739 58498,6917.878,95.438,540.582,538.905,0.0
52106.0,STARLINK-3670,PAYLOAD,2023-04-01 10:18:34,15.08836198,0.0002059,53.2122,227.1758,93.6336,266.4892,0.00025312,3.742e-05,0.0,0 STARLINK-3670,1 52106U 22029U   23091.42956869  .00003742  00000-0  25312-3 0  9995,2 52106  53.2122 227.1758 0002059  93.6336 266.4892 15.08836198 58626,6917.892,95.438,541.181,538.333,0.0
52106.0,STARLINK-3670,PAYLOAD,2023-04-01 13:29:21,15.08822889,0.0001383,53.213,226.5787,103.6971,256.4175,-3.0142e-05,-7.67e-06,0.0,0 STARLINK-3670,1 52106U 22029U   23091.56205181 -.00000767  00000-0 -30142-4 0  9998,2 52106  53.2130 226.5787 0001383 103.6971 256.4175 15.08822889 58643,6917.933,95.439,540.754,538.841,0.0
52106.0,STARLINK-3670,PAYLOAD,2023-04-01 16:40:07,15.08824764,0.0001647,53.2137,225.9842,108.5584,251.5587,0.00012516,1.704e-05,0.0,0 STARLINK-3670,1 52106U 22029U   23091.69453307  .00001704  00000-0  12516-3 0  9991,2 52106  53.2137 225.9842 0001647 108.5584 251.5587 15.08824764 58661,6917.927,95.439,540.931,538.653,0.0
52106.0,STARLINK-3670,PAYLOAD,2023-04-02 13:20:08,15.08852184,0.0001358,53.2137,222.1177,103.3718,256.7426,0.0010943,0.00017176,0.0,0 STARLINK-3670,1 52106U 22029U   23092.55565469  .00017176  00000-0  10943-2 0  9991,2 52106  53.2137 222.1177 0001358 103.3718 256.7426 15.08852184 58792,6917.843,95.437,540.648,538.769,0.0
52106.0,STARLINK-3670,PAYLOAD,2023-04-02 18:06:17,15.0886724,0.0001362,53.2137,221.2249,103.466,256.6484,0.0014237,0.0002246,0.0,0 STARLINK-3670,1 52106U 22029U   23092.75437094  .00022460  00000-0  14237-2 0  9997,2 52106  53.2137 221.2249 0001362 103.4660 256.6484 15.08867240 58820,6917.797,95.436,540.604,538.72,0.0
52106.0,STARLINK-3670,PAYLOAD,2023-04-03 02:03:13,15.08845285,0.0001953,53.2146,219.741,68.6017,291.5184,0.00050061,7.689e-05,0.0,0 STARLINK-3670,1 52106U 22029U   23093.08557656  .00007689  00000-0  50061-3 0  9993,2 52106  53.2146 219.7410 0001953  68.6017 291.5184 15.08845285 58871,6917.864,95.437,541.08,538.378,0.0
52106.0,STARLINK-3670,PAYLOAD,2023-04-03 11:35:32,15.08849838,0.000146,53.2149,217.9549,88.6983,271.4176,0.00046003,7.043e-05,0.0,0 STARLINK-3670,1 52106U 22029U   23093.48301334  .00007043  00000-0  46003-3 0  9992,2 52106  53.2149 217.9549 0001460  88.6983 271.4176 15.08849838 58937,6917.85,95.437,540.725,538.705,0.0
52106.0,STARLINK-3670,PAYLOAD,2023-04-04 11:26:19,15.08851559,0.0001295,53.2151,213.4949,82.9757,277.1383,0.00042965,6.559e-05,0.0,0 STARLINK-3670,1 52106U 22029U   23094.47661078  .00006559  00000-0  42965-3 0  9990,2 52106  53.2151 213.4949 0001295  82.9757 277.1383 15.08851559 59080,6917.845,95.437,540.606,538.814,0.0
